[{"OBJECT_NAME":"OBJECT AL","OBJECT_ID":"2023-091AL","EPOCH":"2026-03-09T22:53:40.653600","MEAN_MOTION":15.4037964,"ECCENTRICITY":0.00073468,"INCLINATION":97.5155,"RA_OF_ASC_NODE":140.236,"ARG_OF_PERICENTER":61.3849,"MEAN_ANOMALY":298.8135,"EPHEMERIS_TYPE":0,"CLASSIFICATION_TYPE":"U","NORAD_CAT_ID":57200,"ELEMENT_SET_NO":999,"REV_AT_EPOCH":14970,"BSTAR":0.00078905328,"MEAN_MOTION_DOT":0.00031911,"MEAN_MOTION_DDOT":0},{"OBJECT_NAME":"STARLINK-34695","OBJECT_ID":"2025-157N","EPOCH":"2026-03-09T22:15:17.480160","MEAN_MOTION":15.39856376,"ECCENTRICITY":8.968e-5,"INCLINATION":53.161,"RA_OF_ASC_NODE":342.1869,"ARG_OF_PERICENTER":113.2486,"MEAN_ANOMALY":246.8614,"EPHEMERIS_TYPE":0,"CLASSIFICATION_TYPE":"U","NORAD_CAT_ID":64916,"ELEMENT_SET_NO":999,"REV_AT_EPOCH":3619,"BSTAR":0.0019591216,"MEAN_MOTION_DOT":0.000794,"MEAN_MOTION_DDOT":0}]
